OBJECT_NAME,OBJECT_ID,EPOCH,MEAN_MOTION,ECCENTRICITY,INCLINATION,RA_OF_ASC_NODE,ARG_OF_PERICENTER,MEAN_ANOMALY,EPHEMERIS_TYPE,CLASSIFICATION_TYPE,NORAD_CAT_ID,ELEMENT_SET_NO,REV_AT_EPOCH,BSTAR,MEAN_MOTION_DOT,MEAN_MOTION_DDOT
SIRION PATHFINDER-2,2018-099B,2026-06-09T02:54:36.065664,15.14478540,.00077803,97.4257,209.3708,337.8238,22.2656,0,U,43759,999,41140,.20380562E-3,.3687E-4,0
CORVUS BC4,2018-099K,2026-06-09T02:48:19.796256,15.12431471,.00091106,97.4073,203.3337,39.5268,320.6626,0,U,43767,999,41118,.22297598E-3,.3814E-4,0
M2 PATHFINDER,2020-037E,2026-06-09T01:35:59.109504,15.04641993,.0011716,97.8162,351.2072,173.3077,186.8307,0,U,45727,999,32427,.16401986E-3,.2244E-4,0
NETSAT-4,2020-068U,2026-06-09T06:45:32.654016,15.43600694,.00048736,97.8610,167.8883,10.8410,349.2940,0,U,46504,999,31455,.35385512E-3,.15834E-3,0
NETSAT-3,2020-068V,2026-06-09T06:45:47.580480,15.42403763,.0005323,97.8658,166.1151,29.2683,330.8860,0,U,46505,999,31446,.37642676E-3,.16188E-3,0
NETSAT-1,2020-068W,2026-06-09T05:53:18.054240,15.34453774,.00059478,97.8748,160.5002,54.9227,305.2571,0,U,46506,999,31408,.34003768E-3,.1127E-3,0
NETSAT-2,2020-068X,2026-06-09T00:12:32.404896,15.45645345,.00045667,97.8623,167.4592,48.2139,311.9499,0,U,46507,999,31447,.40370978E-3,.19387E-3,0
GREENCUBE (IO-117),2022-080E,2026-06-01T11:09:37.753056,6.42583280,.00088692,70.1435,303.7143,293.3663,66.6064,0,U,53109,999,9105,0,-.3E-7,0
SITRO-AIS 5 (KATYS),2023-091L,2026-06-09T05:14:42.834048,15.29271497,.00127283,97.5063,224.0431,128.0751,232.1639,0,U,57176,999,16312,.36832059E-3,.1041E-3,0
SITRO-AIS 6 (CHIRKIN),2023-091AC,2026-06-09T05:52:28.970400,15.25782779,.00129838,97.5072,223.2307,131.0002,229.2361,0,U,57192,999,16307,.36200469E-3,.9198E-4,0
SITRO-AIS 8 (ANOKHIN),2023-091AD,2026-06-09T05:59:09.832704,15.31916033,.00118446,97.5060,225.6307,124.1105,236.1262,0,U,57193,999,16323,.4188195E-3,.12861E-3,0
SITRO-AIS 7 (FARTUSHNIY),2023-091AE,2026-06-09T02:45:46.501056,15.25470044,.00127964,97.5069,222.9295,132.2572,227.9754,0,U,57194,999,16304,.33765472E-3,.8492E-4,0
SITRO-AIS 10 (BURDAEV),2023-091AK,2026-06-09T05:58:42.533760,15.38307466,.00078998,97.5083,230.6034,103.6058,256.6067,0,U,57199,999,16354,.47669274E-3,.17951E-3,0
SITRO-AIS 9 (SHCHUKIN),2023-091AM,2026-06-09T04:59:25.657440,15.37827613,.00081469,97.5081,230.2975,103.7433,256.4719,0,U,57201,999,16352,.4867549E-3,.1805E-3,0
SITRO-AIS 12 (SMIRENNIY),2023-091AQ,2026-06-09T06:21:46.291968,15.38118975,.00077397,97.5094,230.8179,98.6321,261.5800,0,U,57204,999,16355,.45887394E-3,.17169E-3,0
SITRO-AIS 11 (SHEFFER),2023-091AU,2026-06-09T05:10:34.024512,15.38535286,.00076402,97.5092,231.0090,98.7854,261.4256,0,U,57208,999,16356,.4837339E-3,.18353E-3,0
SITRO-AIS 25,2024-039R,2026-06-09T06:27:41.986944,14.93471346,.01444846,95.3912,229.6514,356.6287,3.3950,0,U,59066,999,12354,.23500622E-3,.3E-4,0
SITRO-AIS 26,2024-039S,2026-06-09T06:28:07.456800,14.93268305,.01448329,95.3913,229.5510,357.2024,2.8375,0,U,59067,999,12353,.23553664E-3,.2993E-4,0
SITRO-AIS 27,2024-039T,2026-06-09T05:48:27.910944,14.93685330,.01439133,95.3913,229.8002,355.8914,4.1117,0,U,59068,999,12355,.19985724E-3,.2557E-4,0
SITRO-AIS 28,2024-039U,2026-06-09T06:52:42.362688,14.93721643,.01437707,95.3917,229.8777,355.6383,4.3578,0,U,59071,999,12356,.21358352E-3,.2737E-4,0
GRBBETA,2024-128C,2026-06-08T17:23:39.175872,15.06584103,.00417987,61.9897,245.9555,132.8784,227.5832,0,U,60237,999,10499,.29271664E-3,.4223E-4,0
OOV-CUBE (TUBSAT-30),2024-128F,2026-06-08T19:18:32.916096,15.02739260,.00456878,61.9950,254.8019,131.8693,228.6311,0,U,60240,999,10485,.20896245E-3,.2654E-4,0
ROBUSTA-3A (MEDITERRANEE),2024-128J,2026-06-08T19:12:05.668704,15.11578086,.00423306,61.9858,237.9014,126.3779,234.1234,0,U,60243,999,10515,.45182179E-3,.7653E-4,0
LASARSAT,2024-247Q,2026-06-08T21:36:08.998560,15.45852185,.00083649,44.9750,308.7653,285.6781,74.3185,0,U,62391,999,8203,.69420082E-3,.34289E-3,0
CROCUBE,2024-247T,2026-06-09T05:32:04.033536,15.47689527,.00082013,44.9724,304.3705,290.8811,69.1201,0,U,62394,999,8211,.64616079E-3,.33999E-3,0
FORESAIL-1 PRIME,2025-276DS,2026-06-08T04:01:00.773184,15.18619338,.0003714,97.4199,232.6039,122.1307,238.0288,0,U,66778,999,2903,.21751E-3,.4435E-4,0
KNACKSAT-2,1998-067XZ,2026-06-09T05:06:42.455232,15.59248117,.00101391,51.6310,334.5675,180.3402,179.7586,0,U,67683,999,1903,.55731746E-3,.44471E-3,0
