SIRION PATHFINDER-2     
1 43759U 18099B   26160.12125076  .00003687  00000+0  20381-3 0  9994
2 43759  97.4257 209.3708 0007780 337.8238  22.2656 15.14478540411401
CORVUS BC4              
1 43767U 18099K   26160.11689579  .00003814  00000+0  22298-3 0  9996
2 43767  97.4073 203.3337 0009110  39.5268 320.6626 15.12431471411183
M2 PATHFINDER           
1 45727U 20037E   26160.06665636  .00002244  00000+0  16402-3 0  9997
2 45727  97.8162 351.2072 0011716 173.3077 186.8307 15.04641993324277
NETSAT-4                
1 46504U 20068U   26160.28162794  .00015834  00000+0  35386-3 0  9997
2 46504  97.8610 167.8883 0004873  10.8410 349.2940 15.43600694314556
NETSAT-3                
1 46505U 20068V   26160.28180070  .00016188  00000+0  37643-3 0  9996
2 46505  97.8658 166.1151 0005323  29.2683 330.8860 15.42403763314460
NETSAT-1                
1 46506U 20068W   26160.24534785  .00011270  00000+0  34004-3 0  9994
2 46506  97.8748 160.5002 0005947  54.9227 305.2571 15.34453774314086
NETSAT-2                
1 46507U 20068X   26160.00870839  .00019387  00000+0  40371-3 0  9993
2 46507  97.8623 167.4592 0004566  48.2139 311.9499 15.45645345314478
GREENCUBE (IO-117)      
1 53109U 22080E   26152.46502029 -.00000003  00000+0  00000+0 0  9996
2 53109  70.1435 303.7143 0008869 293.3663  66.6064  6.42583280 91055
SITRO-AIS 5 (KATYS)     
1 57176U 23091L   26160.21855132  .00010410  00000+0  36832-3 0  9993
2 57176  97.5063 224.0431 0012728 128.0751 232.1639 15.29271497163124
SITRO-AIS 6 (CHIRKIN)   
1 57192U 23091AC  26160.24477975  .00009198  00000+0  36200-3 0  9999
2 57192  97.5072 223.2307 0012983 131.0002 229.2361 15.25782779163070
SITRO-AIS 8 (ANOKHIN)   
1 57193U 23091AD  26160.24941936  .00012861  00000+0  41882-3 0  9996
2 57193  97.5060 225.6307 0011844 124.1105 236.1262 15.31916033163230
SITRO-AIS 7 (FARTUSHNIY)
1 57194U 23091AE  26160.11512154  .00008492  00000+0  33765-3 0  9995
2 57194  97.5069 222.9295 0012796 132.2572 227.9754 15.25470044163044
SITRO-AIS 10 (BURDAEV)  
1 57199U 23091AK  26160.24910340  .00017951  00000+0  47669-3 0  9991
2 57199  97.5083 230.6034 0007899 103.6058 256.6067 15.38307466163543
SITRO-AIS 9 (SHCHUKIN)  
1 57201U 23091AM  26160.20793585  .00018050  00000+0  48675-3 0  9990
2 57201  97.5081 230.2975 0008146 103.7433 256.4719 15.37827613163529
SITRO-AIS 12 (SMIRENNIY)
1 57204U 23091AQ  26160.26511912  .00017169  00000+0  45887-3 0  9993
2 57204  97.5094 230.8179 0007739  98.6321 261.5800 15.38118975163559
SITRO-AIS 11 (SHEFFER)  
1 57208U 23091AU  26160.21567158  .00018353  00000+0  48373-3 0  9994
2 57208  97.5092 231.0090 0007640  98.7854 261.4256 15.38535286163562
SITRO-AIS 25            
1 59066U 24039R   26160.26923596  .00003000  00000+0  23501-3 0  9997
2 59066  95.3912 229.6514 0144484 356.6287   3.3950 14.93471346123545
SITRO-AIS 26            
1 59067U 24039S   26160.26953075  .00002993  00000+0  23554-3 0  9991
2 59067  95.3913 229.5510 0144832 357.2024   2.8375 14.93268305123538
SITRO-AIS 27            
1 59068U 24039T   26160.24198971  .00002557  00000+0  19986-3 0  9996
2 59068  95.3913 229.8002 0143913 355.8914   4.1117 14.93685330123551
SITRO-AIS 28            
1 59071U 24039U   26160.28660142  .00002737  00000+0  21358-3 0  9994
2 59071  95.3917 229.8777 0143770 355.6383   4.3578 14.93721643123569
GRBBETA                 
1 60237U 24128C   26159.72475898  .00004223  00000+0  29272-3 0  9993
2 60237  61.9897 245.9555 0041798 132.8784 227.5832 15.06584103104992
OOV-CUBE (TUBSAT-30)    
1 60240U 24128F   26159.80454764  .00002654  00000+0  20896-3 0  9994
2 60240  61.9950 254.8019 0045687 131.8693 228.6311 15.02739260104850
ROBUSTA-3A (MEDITERRAN*)
1 60243U 24128J   26159.80006561  .00007653  00000+0  45182-3 0  9994
2 60243  61.9858 237.9014 0042330 126.3779 234.1234 15.11578086105150
LASARSAT                
1 62391U 24247Q   26159.90010415  .00034289  00000+0  69420-3 0  9992
2 62391  44.9750 308.7653 0008364 285.6781  74.3185 15.45852185 82037
CROCUBE                 
1 62394U 24247T   26160.23060224  .00033999  00000+0  64616-3 0  9995
2 62394  44.9724 304.3705 0008201 290.8811  69.1201 15.47689527 82113
FORESAIL-1 PRIME        
1 66778U 25276DS  26159.16737006  .00004435  00000+0  21751-3 0  9993
2 66778  97.4199 232.6039 0003714 122.1307 238.0288 15.18619338 29031
KNACKSAT-2              
1 67683U 98067XZ  26160.21299138  .00044471  00000+0  55732-3 0  9994
2 67683  51.6310 334.5675 0010139 180.3402 179.7586 15.59248117 19032
